STARLINK-36390          
1 67886U 26035H   26080.57037141  .00378198  00000+0  24126-2 0  9997
2 67886  97.2862  13.5509 0001961 107.2018 252.9463 15.75317211  5717
STARLINK-36368          
1 67887U 26035J   26080.50001157 -.01534797  00000+0 -11086-1 0  9991
2 67887  97.2865  13.5338 0001440  81.6231   8.8547 15.76458120  5655
STARLINK-36801          
1 67888U 26035K   26080.50001157 -.00058862  00000+0 -39673-3 0  9999
2 67888  97.2862  13.5288 0001518  83.2612 354.1026 15.75175309  5657
STARLINK-36372          
1 67889U 26035L   26080.50001157  .00046969  00000+0  31458-3 0  9996
2 67889  97.2873  13.5186 0001763  86.3140 331.0056 15.75149609  5650
STARLINK-36363          
1 67890U 26035M   26080.37626296 -.00060278  00000+0 -40599-3 0  9997
2 67890  97.2851  13.3556 0001912 131.3561 228.7869 15.75195180  5683
STARLINK-36816          
1 67891U 26035N   26080.47081262 -.00480128  00000+0 -26974-2 0  9997
2 67891  97.2894  13.5281 0001367 106.1332 254.0087 15.80396578  5705
STARLINK-36813          
1 67892U 26035P   26080.53858182  .00351018  00000+0  17564-2 0  9996
2 67892  97.2902  13.5883 0001174  83.8920 276.2482 15.80866972  5710
STARLINK-36803          
1 67893U 26035Q   26080.35316979  .00415119  00000+0  20751-2 0  9995
2 67893  97.2888  13.3837 0002226 138.9370 221.2066 15.80724363  5682
STARLINK-36846          
1 67894U 26035R   26080.56860258  .00376567  00000+0  23967-2 0  9998
2 67894  97.2877  13.5517 0001847 139.5265 220.6138 15.75374405  5715
STARLINK-36866          
1 67895U 26035S   26080.56084646  .00340262  00000+0  21784-2 0  9996
2 67895  97.2877  13.5614 0002136  85.2610 274.8899 15.75339285  5719
STARLINK-36877          
1 67896U 26035T   26080.54233291  .00202530  00000+0  10291-2 0  9993
2 67896  97.2898  13.5856 0001272  98.1702 261.9711 15.80913352  5715
STARLINK-36870          
1 67897U 26035U   26080.50001157 -.00172899  00000+0 -11760-2 0  9992
2 67897  97.2865  13.5437 0001326  87.9761  33.2611 15.75305717  5652
