CCSDS_OMM_VERS = 2.0
CREATION_DATE  = 
ORIGINATOR     = 

OBJECT_NAME    = STARLINK-36390
OBJECT_ID      = 2026-035H
CENTER_NAME    = EARTH
REF_FRAME      = TEME
TIME_SYSTEM    = UTC
MEAN_ELEMENT_THEORY = SGP/SGP4

EPOCH          = 2026-03-21T13:41:20.089824
MEAN_MOTION    = 15.75317211
ECCENTRICITY   = .00019614
INCLINATION    = 97.2862
RA_OF_ASC_NODE = 13.5509
ARG_OF_PERICENTER = 107.2018
MEAN_ANOMALY   = 252.9463

EPHEMERIS_TYPE = 0
CLASSIFICATION_TYPE = U
NORAD_CAT_ID   = 67886
ELEMENT_SET_NO = 999
REV_AT_EPOCH   = 571
BSTAR          = .24125704E-2
MEAN_MOTION_DOT = .378198E-2
MEAN_MOTION_DDOT = 0

CCSDS_OMM_VERS = 2.0
CREATION_DATE  = 
ORIGINATOR     = 

OBJECT_NAME    = STARLINK-36368
OBJECT_ID      = 2026-035J
CENTER_NAME    = EARTH
REF_FRAME      = TEME
TIME_SYSTEM    = UTC
MEAN_ELEMENT_THEORY = SGP/SGP4

EPOCH          = 2026-03-21T12:00:00.999648
MEAN_MOTION    = 15.76458120
ECCENTRICITY   = .000144
INCLINATION    = 97.2865
RA_OF_ASC_NODE = 13.5338
ARG_OF_PERICENTER = 81.6231
MEAN_ANOMALY   = 8.8547

EPHEMERIS_TYPE = 0
CLASSIFICATION_TYPE = U
NORAD_CAT_ID   = 67887
ELEMENT_SET_NO = 999
REV_AT_EPOCH   = 565
BSTAR          = -.11085665E-1
MEAN_MOTION_DOT = -.1534797E-1
MEAN_MOTION_DDOT = 0

CCSDS_OMM_VERS = 2.0
CREATION_DATE  = 
ORIGINATOR     = 

OBJECT_NAME    = STARLINK-36801
OBJECT_ID      = 2026-035K
CENTER_NAME    = EARTH
REF_FRAME      = TEME
TIME_SYSTEM    = UTC
MEAN_ELEMENT_THEORY = SGP/SGP4

EPOCH          = 2026-03-21T12:00:00.999648
MEAN_MOTION    = 15.75175309
ECCENTRICITY   = .00015184
INCLINATION    = 97.2862
RA_OF_ASC_NODE = 13.5288
ARG_OF_PERICENTER = 83.2612
MEAN_ANOMALY   = 354.1026

EPHEMERIS_TYPE = 0
CLASSIFICATION_TYPE = U
NORAD_CAT_ID   = 67888
ELEMENT_SET_NO = 999
REV_AT_EPOCH   = 565
BSTAR          = -.39672822E-3
MEAN_MOTION_DOT = -.58862E-3
MEAN_MOTION_DDOT = 0

CCSDS_OMM_VERS = 2.0
CREATION_DATE  = 
ORIGINATOR     = 

OBJECT_NAME    = STARLINK-36372
OBJECT_ID      = 2026-035L
CENTER_NAME    = EARTH
REF_FRAME      = TEME
TIME_SYSTEM    = UTC
MEAN_ELEMENT_THEORY = SGP/SGP4

EPOCH          = 2026-03-21T12:00:00.999648
MEAN_MOTION    = 15.75149609
ECCENTRICITY   = .00017637
INCLINATION    = 97.2873
RA_OF_ASC_NODE = 13.5186
ARG_OF_PERICENTER = 86.3140
MEAN_ANOMALY   = 331.0056

EPHEMERIS_TYPE = 0
CLASSIFICATION_TYPE = U
NORAD_CAT_ID   = 67889
ELEMENT_SET_NO = 999
REV_AT_EPOCH   = 565
BSTAR          = .31458039E-3
MEAN_MOTION_DOT = .46969E-3
MEAN_MOTION_DDOT = 0

CCSDS_OMM_VERS = 2.0
CREATION_DATE  = 
ORIGINATOR     = 

OBJECT_NAME    = STARLINK-36363
OBJECT_ID      = 2026-035M
CENTER_NAME    = EARTH
REF_FRAME      = TEME
TIME_SYSTEM    = UTC
MEAN_ELEMENT_THEORY = SGP/SGP4

EPOCH          = 2026-03-21T09:01:49.119744
MEAN_MOTION    = 15.75195180
ECCENTRICITY   = .00019121
INCLINATION    = 97.2851
RA_OF_ASC_NODE = 13.3556
ARG_OF_PERICENTER = 131.3561
MEAN_ANOMALY   = 228.7869

EPHEMERIS_TYPE = 0
CLASSIFICATION_TYPE = U
NORAD_CAT_ID   = 67890
ELEMENT_SET_NO = 999
REV_AT_EPOCH   = 568
BSTAR          = -.4059889E-3
MEAN_MOTION_DOT = -.60278E-3
MEAN_MOTION_DDOT = 0

CCSDS_OMM_VERS = 2.0
CREATION_DATE  = 
ORIGINATOR     = 

OBJECT_NAME    = STARLINK-36816
OBJECT_ID      = 2026-035N
CENTER_NAME    = EARTH
REF_FRAME      = TEME
TIME_SYSTEM    = UTC
MEAN_ELEMENT_THEORY = SGP/SGP4

EPOCH          = 2026-03-21T11:17:58.210368
MEAN_MOTION    = 15.80396578
ECCENTRICITY   = .00013679
INCLINATION    = 97.2894
RA_OF_ASC_NODE = 13.5281
ARG_OF_PERICENTER = 106.1332
MEAN_ANOMALY   = 254.0087

EPHEMERIS_TYPE = 0
CLASSIFICATION_TYPE = U
NORAD_CAT_ID   = 67891
ELEMENT_SET_NO = 999
REV_AT_EPOCH   = 570
BSTAR          = -.26974237E-2
MEAN_MOTION_DOT = -.480128E-2
MEAN_MOTION_DDOT = 0

CCSDS_OMM_VERS = 2.0
CREATION_DATE  = 
ORIGINATOR     = 

OBJECT_NAME    = STARLINK-36813
OBJECT_ID      = 2026-035P
CENTER_NAME    = EARTH
REF_FRAME      = TEME
TIME_SYSTEM    = UTC
MEAN_ELEMENT_THEORY = SGP/SGP4

EPOCH          = 2026-03-21T12:55:33.469248
MEAN_MOTION    = 15.80866972
ECCENTRICITY   = .00011749
INCLINATION    = 97.2902
RA_OF_ASC_NODE = 13.5883
ARG_OF_PERICENTER = 83.8920
MEAN_ANOMALY   = 276.2482

EPHEMERIS_TYPE = 0
CLASSIFICATION_TYPE = U
NORAD_CAT_ID   = 67892
ELEMENT_SET_NO = 999
REV_AT_EPOCH   = 571
BSTAR          = .17564341E-2
MEAN_MOTION_DOT = .351018E-2
MEAN_MOTION_DDOT = 0

CCSDS_OMM_VERS = 2.0
CREATION_DATE  = 
ORIGINATOR     = 

OBJECT_NAME    = STARLINK-36803
OBJECT_ID      = 2026-035Q
CENTER_NAME    = EARTH
REF_FRAME      = TEME
TIME_SYSTEM    = UTC
MEAN_ELEMENT_THEORY = SGP/SGP4

EPOCH          = 2026-03-21T08:28:33.869856
MEAN_MOTION    = 15.80724363
ECCENTRICITY   = .00022269
INCLINATION    = 97.2888
RA_OF_ASC_NODE = 13.3837
ARG_OF_PERICENTER = 138.9370
MEAN_ANOMALY   = 221.2066

EPHEMERIS_TYPE = 0
CLASSIFICATION_TYPE = U
NORAD_CAT_ID   = 67893
ELEMENT_SET_NO = 999
REV_AT_EPOCH   = 568
BSTAR          = .20751106E-2
MEAN_MOTION_DOT = .415119E-2
MEAN_MOTION_DDOT = 0

CCSDS_OMM_VERS = 2.0
CREATION_DATE  = 
ORIGINATOR     = 

OBJECT_NAME    = STARLINK-36846
OBJECT_ID      = 2026-035R
CENTER_NAME    = EARTH
REF_FRAME      = TEME
TIME_SYSTEM    = UTC
MEAN_ELEMENT_THEORY = SGP/SGP4

EPOCH          = 2026-03-21T13:38:47.262912
MEAN_MOTION    = 15.75374405
ECCENTRICITY   = .00018476
INCLINATION    = 97.2877
RA_OF_ASC_NODE = 13.5517
ARG_OF_PERICENTER = 139.5265
MEAN_ANOMALY   = 220.6138

EPHEMERIS_TYPE = 0
CLASSIFICATION_TYPE = U
NORAD_CAT_ID   = 67894
ELEMENT_SET_NO = 999
REV_AT_EPOCH   = 571
BSTAR          = .23967093E-2
MEAN_MOTION_DOT = .376567E-2
MEAN_MOTION_DDOT = 0

CCSDS_OMM_VERS = 2.0
CREATION_DATE  = 
ORIGINATOR     = 

OBJECT_NAME    = STARLINK-36866
OBJECT_ID      = 2026-035S
CENTER_NAME    = EARTH
REF_FRAME      = TEME
TIME_SYSTEM    = UTC
MEAN_ELEMENT_THEORY = SGP/SGP4

EPOCH          = 2026-03-21T13:27:37.134144
MEAN_MOTION    = 15.75339285
ECCENTRICITY   = .00021366
INCLINATION    = 97.2877
RA_OF_ASC_NODE = 13.5614
ARG_OF_PERICENTER = 85.2610
MEAN_ANOMALY   = 274.8899

EPHEMERIS_TYPE = 0
CLASSIFICATION_TYPE = U
NORAD_CAT_ID   = 67895
ELEMENT_SET_NO = 999
REV_AT_EPOCH   = 571
BSTAR          = .21783566E-2
MEAN_MOTION_DOT = .340262E-2
MEAN_MOTION_DDOT = 0

CCSDS_OMM_VERS = 2.0
CREATION_DATE  = 
ORIGINATOR     = 

OBJECT_NAME    = STARLINK-36877
OBJECT_ID      = 2026-035T
CENTER_NAME    = EARTH
REF_FRAME      = TEME
TIME_SYSTEM    = UTC
MEAN_ELEMENT_THEORY = SGP/SGP4

EPOCH          = 2026-03-21T13:00:57.563424
MEAN_MOTION    = 15.80913352
ECCENTRICITY   = .00012728
INCLINATION    = 97.2898
RA_OF_ASC_NODE = 13.5856
ARG_OF_PERICENTER = 98.1702
MEAN_ANOMALY   = 261.9711

EPHEMERIS_TYPE = 0
CLASSIFICATION_TYPE = U
NORAD_CAT_ID   = 67896
ELEMENT_SET_NO = 999
REV_AT_EPOCH   = 571
BSTAR          = .10291475E-2
MEAN_MOTION_DOT = .20253E-2
MEAN_MOTION_DDOT = 0

CCSDS_OMM_VERS = 2.0
CREATION_DATE  = 
ORIGINATOR     = 

OBJECT_NAME    = STARLINK-36870
OBJECT_ID      = 2026-035U
CENTER_NAME    = EARTH
REF_FRAME      = TEME
TIME_SYSTEM    = UTC
MEAN_ELEMENT_THEORY = SGP/SGP4

EPOCH          = 2026-03-21T12:00:00.999648
MEAN_MOTION    = 15.75305717
ECCENTRICITY   = .00013262
INCLINATION    = 97.2865
RA_OF_ASC_NODE = 13.5437
ARG_OF_PERICENTER = 87.9761
MEAN_ANOMALY   = 33.2611

EPHEMERIS_TYPE = 0
CLASSIFICATION_TYPE = U
NORAD_CAT_ID   = 67897
ELEMENT_SET_NO = 999
REV_AT_EPOCH   = 565
BSTAR          = -.11759711E-2
MEAN_MOTION_DOT = -.172899E-2
MEAN_MOTION_DDOT = 0

